[{"OBJECT_NAME":"STARLINK-34648","OBJECT_ID":"2025-167P","EPOCH":"2026-03-09T06:37:36.361056","MEAN_MOTION":15.30198253,"ECCENTRICITY":0.00012785,"INCLINATION":53.1615,"RA_OF_ASC_NODE":28.7842,"ARG_OF_PERICENTER":62.5742,"MEAN_ANOMALY":297.5389,"EPHEMERIS_TYPE":0,"CLASSIFICATION_TYPE":"U","NORAD_CAT_ID":65091,"ELEMENT_SET_NO":999,"REV_AT_EPOCH":3341,"BSTAR":0.0010005854,"MEAN_MOTION_DOT":0.00029391,"MEAN_MOTION_DDOT":0},{"OBJECT_NAME":"SL-19 R\/B","OBJECT_ID":"2011-005B","EPOCH":"2026-03-09T21:50:35.538720","MEAN_MOTION":15.57556472,"ECCENTRICITY":0.01260184,"INCLINATION":99.3438,"RA_OF_ASC_NODE":178.5978,"ARG_OF_PERICENTER":174.8144,"MEAN_ANOMALY":185.4445,"EPHEMERIS_TYPE":0,"CLASSIFICATION_TYPE":"U","NORAD_CAT_ID":37363,"ELEMENT_SET_NO":999,"REV_AT_EPOCH":82354,"BSTAR":0.00054776137,"MEAN_MOTION_DOT":0.00058791,"MEAN_MOTION_DDOT":0}]
